SWARM A                 
1 39452U 13067B   26177.25231912  .00011177  00000+0  19109-3 0  9997
2 39452  87.3323  52.8732 0003131  97.4111 262.7506 15.51118293707658
SWARM C                 
1 39453U 13067C   26177.25221470  .00011132  00000+0  19034-3 0  9994
2 39453  87.3323  51.4543 0003128  97.3883 262.7733 15.51117149707612
BRITE-CA1 (TORONTO)     
1 40020U 14033L   26177.27822434  .00000831  00000+0  13250-3 0  9997
2 40020  97.9748 306.0390 0077318 247.3952 111.9063 14.72689851643556
OCO 2                   
1 40059U 14035A   26177.28851436  .00000386  00000+0  95723-4 0  9997
2 40059  98.2019 118.4429 0001509  83.8322 276.3048 14.57118173637373
BRITE-PL2 (HEWELIUSZ)   
1 40119U 14049B   26177.27734332  .00001816  00000+0  17279-3 0  9991
2 40119  97.9106 289.3476 0015397  80.7286 279.5675 14.94626891642805
MMS 1                   
1 40482U 15011A   26177.33335648 -.00000791  00000+0  00000+0 0  9990
2 40482  72.2770 348.7028 8319421 167.5888 151.6689  0.28359153  1371
MMS 2                   
1 40483U 15011B   26177.33335648 -.00000791  00000+0  00000+0 0  9991
2 40483  72.2813 348.7017 8322266 167.5921 151.6596  0.28359198  1373
MMS 3                   
1 40484U 15011C   26177.33335648 -.00000790  00000+0  00000+0 0  9991
2 40484  72.2812 348.7135 8320635 167.5996 151.6335  0.28359195  1372
MMS 4                   
1 40485U 15011D   26177.33335648 -.00000791  00000+0  00000+0 0  9993
2 40485  72.2769 348.6969 8320500 167.6093 151.6264  0.28359129  1376
ASTROSAT                
1 40930U 15052A   26177.17336046  .00001522  00000+0  10345-3 0  9997
2 40930   5.9974  90.6591 0007900 166.5597 193.4742 14.82520964581169
DAMPE                   
1 41173U 15078A   26177.25449860  .00001795  00000+0  62780-4 0  9996
2 41173  97.4561 182.7663 0013458  49.2769 310.9639 15.30808499585939
PISAT                   
1 41784U 16059B   26176.99901235  .00000862  00000+0  15416-3 0  9990
2 41784  97.8179 177.0732 0029119 174.3760 185.7778 14.68997282521034
HXMT (HUIYAN)           
1 42758U 17034A   26177.27741197  .00004686  00000+0  23138-3 0  9995
2 42758  43.0130 132.4204 0031988 204.9644 154.9658 15.18532920499043
FLYING LAPTOP           
1 42831U 17042G   26177.25081047  .00004183  00000+0  32906-3 0  9990
2 42831  97.4724 332.4369 0019972  92.7991 267.5520 15.01201603487812
ZHANGHENG 1-01 (CSES-1) 
1 43194U 18015C   26177.28436476  .00008129  00000+0  36921-3 0  9992
2 43194  97.6871 343.1235 0017365 232.5282 127.4374 15.20921353466025
SALSAT                  
1 46495U 20068K   26177.23713265  .00008443  00000+0  29407-3 0  9999
2 46495  97.8850 180.8533 0007806 269.3703  90.6642 15.29920409316745
IXPE                    
1 49954U 21121A   26177.33335648  .00010437  00000+0  56257-3 0  9998
2 49954   0.2286 248.7503 0006843 215.4143 284.8581 15.10329936  5898
SMILE                   
1 69123U 26109A   26158.38327019 -.00000041  00000+0 -36778-3 0  9994
2 69123  69.9787 209.3069 3310191 288.5544  45.7342  7.54049028  2480
