OBJECT_NAME,OBJECT_ID,EPOCH,MEAN_MOTION,ECCENTRICITY,INCLINATION,RA_OF_ASC_NODE,ARG_OF_PERICENTER,MEAN_ANOMALY,EPHEMERIS_TYPE,CLASSIFICATION_TYPE,NORAD_CAT_ID,ELEMENT_SET_NO,REV_AT_EPOCH,BSTAR,MEAN_MOTION_DOT,MEAN_MOTION_DDOT
SWARM A,2013-067B,2026-06-26T06:03:20.371968,15.51118293,.00031312,87.3323,52.8732,97.4111,262.7506,0,U,39452,999,70765,.19109195E-3,.11177E-3,0
SWARM C,2013-067C,2026-06-26T06:03:11.350080,15.51117149,.00031282,87.3323,51.4543,97.3883,262.7733,0,U,39453,999,70761,.19033754E-3,.11132E-3,0
BRITE-CA1 (TORONTO),2014-033L,2026-06-26T06:40:38.582976,14.72689851,.00773181,97.9748,306.0390,247.3952,111.9063,0,U,40020,999,64355,.13249643E-3,.831E-5,0
OCO 2,2014-035A,2026-06-26T06:55:27.640704,14.57118173,.00015099,98.2019,118.4429,83.8322,276.3048,0,U,40059,999,63737,.9572262E-4,.386E-5,0
BRITE-PL2 (HEWELIUSZ),2014-049B,2026-06-26T06:39:22.462848,14.94626891,.00153972,97.9106,289.3476,80.7286,279.5675,0,U,40119,999,64280,.17279012E-3,.1816E-4,0
MMS 1,2015-011A,2026-06-26T08:00:01.999872,0.28359153,.83194214,72.2770,348.7028,167.5888,151.6689,0,U,40482,999,137,0,-.791E-5,0
MMS 2,2015-011B,2026-06-26T08:00:01.999872,0.28359198,.8322266,72.2813,348.7017,167.5921,151.6596,0,U,40483,999,137,0,-.791E-5,0
MMS 3,2015-011C,2026-06-26T08:00:01.999872,0.28359195,.8320635,72.2812,348.7135,167.5996,151.6335,0,U,40484,999,137,0,-.79E-5,0
MMS 4,2015-011D,2026-06-26T08:00:01.999872,0.28359129,.83205005,72.2769,348.6969,167.6093,151.6264,0,U,40485,999,137,0,-.791E-5,0
ASTROSAT,2015-052A,2026-06-26T04:09:38.343744,14.82520964,.00079009,5.9974,90.6591,166.5597,193.4742,0,U,40930,999,58116,.10345235E-3,.1522E-4,0
DAMPE,2015-078A,2026-06-26T06:06:28.679040,15.30808499,.00134583,97.4561,182.7663,49.2769,310.9639,0,U,41173,999,58593,.62779717E-4,.1795E-4,0
PISAT,2016-059B,2026-06-25T23:58:34.667040,14.68997282,.00291194,97.8179,177.0732,174.3760,185.7778,0,U,41784,999,52103,.15416179E-3,.862E-5,0
HXMT (HUIYAN),2017-034A,2026-06-26T06:39:28.394208,15.18532920,.00319883,43.0130,132.4204,204.9644,154.9658,0,U,42758,999,49904,.23137832E-3,.4686E-4,0
FLYING LAPTOP,2017-042G,2026-06-26T06:01:10.024608,15.01201603,.00199722,97.4724,332.4369,92.7991,267.5520,0,U,42831,999,48781,.3290638E-3,.4183E-4,0
ZHANGHENG 1-01 (CSES-1),2018-015C,2026-06-26T06:49:29.115264,15.20921353,.00173657,97.6871,343.1235,232.5282,127.4374,0,U,43194,999,46602,.36920769E-3,.8129E-4,0
SALSAT,2020-068K,2026-06-26T05:41:28.260960,15.29920409,.00078065,97.8850,180.8533,269.3703,90.6642,0,U,46495,999,31674,.29407466E-3,.8443E-4,0
IXPE,2021-121A,2026-06-26T08:00:01.999872,15.10329936,.00068439,0.2286,248.7503,215.4143,284.8581,0,U,49954,999,589,.56256633E-3,.10437E-3,0
SMILE,2026-109A,2026-06-07T09:11:54.544416,7.54049028,.3310191,69.9787,209.3069,288.5544,45.7342,0,U,69123,999,248,-.36778157E-3,-.41E-6,0
